STARLINK-4341           
1 53052U 22077K   22203.16667824  .00049119  00000+0  40467-3 0  9999
2 53052  97.6560  21.7543 0001635  83.2439 325.0357 15.70240718  2334
STARLINK-4337           
1 53053U 22077L   22203.16667824 -.00114174  00000+0 -95188-3 0  9996
2 53053  97.6573  21.7572 0001402  81.4687 330.0134 15.70329972  2337
STARLINK-4339           
1 53054U 22077M   22203.16667824 -.00023542  00000+0 -19356-3 0  9998
2 53054  97.6578  21.7553 0001578  81.4498 328.2325 15.70298632  2335
STARLINK-4338           
1 53055U 22077N   22202.91667824  .00117938  00000+0  96283-3 0  9996
2 53055  97.6568  21.4824 0001596  89.9370 350.4338 15.70224688  1302
STARLINK-4314           
1 53056U 22077P   22202.91667824  .00118614  00000+0  96887-3 0  9999
2 53056  97.6573  21.4812 0001298  89.6535 348.9425 15.70209792  1303
STARLINK-4252           
1 53057U 22077Q   22202.91667824  .00051965  00000+0  42814-3 0  9996
2 53057  97.6567  21.4828 0001428  91.8936 349.6560 15.70228094  1303
STARLINK-4317           
1 53058U 22077R   22202.91667824  .00082979  00000+0  68136-3 0  9991
2 53058  97.6564  21.4814 0001631  80.0862 359.7003 15.70197267  1301
STARLINK-4320           
1 53059U 22077S   22202.91667824  .00023086  00000+0  19123-3 0  9998
2 53059  97.6571  21.4838 0001595  86.1227 356.6093 15.70258103  1309
STARLINK-4305           
1 53060U 22077T   22202.91667824  .00014141  00000+0  11786-3 0  9999
2 53060  97.6564  21.4831 0001536  87.2336 353.7330 15.70220434  1302
STARLINK-4308           
1 53061U 22077U   22202.91667824  .00118672  00000+0  96891-3 0  9994
2 53061  97.6570  21.4857 0001541  89.7353 354.2161 15.70220224  1305
STARLINK-4311           
1 53062U 22077V   22202.91667824  .00104606  00000+0  85511-3 0  9994
2 53062  97.6568  21.4834 0001550  88.1384 353.9847 15.70235139  1303
STARLINK-4307           
1 53063U 22077W   22202.91667824  .00051067  00000+0  42116-3 0  9991
2 53063  97.6574  21.4864 0001576  85.1884 359.9773 15.70207412  1301
STARLINK-4313           
1 53064U 22077X   22202.91667824  .00118866  00000+0  97082-3 0  9995
2 53064  97.6572  21.4842 0001421  86.2845 357.0710 15.70211623  1303
STARLINK-4312           
1 53065U 22077Y   22203.16667824 -.00061721  00000+0 -51384-3 0  9998
2 53065  97.6573  21.7603 0000988  94.2230 323.7741 15.70191977  2334
STARLINK-4309           
1 53066U 22077Z   22203.16667824 -.00068699  00000+0 -57088-3 0  9997
2 53066  97.6571  21.7601 0001502  95.8812 320.9632 15.70260464  2333
STARLINK-4306           
1 53067U 22077AA  22203.16667824 -.00213813  00000+0 -17981-2 0  9995
2 53067  97.6562  21.7617 0001620  60.7856 359.3268 15.70416764  2338
STARLINK-4325           
1 53068U 22077AB  22202.91667824  .00119568  00000+0  97184-3 0  9992
2 53068  97.6571  21.4858 0002078  90.9543 355.5396 15.70325706  1300
STARLINK-4323           
1 53069U 22077AC  22203.16667824 -.00098850  00000+0 -82278-3 0  9991
2 53069  97.6574  21.7616 0001217  86.7884 334.2162 15.70321820  2336
STARLINK-4342           
1 53070U 22077AD  22203.16667824 -.00063527  00000+0 -52504-3 0  9995
2 53070  97.6577  21.7616 0001809  74.9249 344.5479 15.70371953  2339
STARLINK-4328           
1 53071U 22077AE  22202.91667824  .00119055  00000+0  97233-3 0  9992
2 53071  97.6573  21.4885 0001155  86.1301   3.7119 15.70212065  1308
STARLINK-4344           
1 53072U 22077AF  22203.16667824 -.00106116  00000+0 -88442-3 0  9999
2 53072  97.6555  21.7605 0001757  81.5868 338.8535 15.70311400  2338
STARLINK-4346           
1 53073U 22077AG  22202.91667824  .00081052  00000+0  66511-3 0  9994
2 53073  97.6565  21.4891 0001539  91.5899 359.5118 15.70219316  1303
STARLINK-4310           
1 53074U 22077AH  22203.16667824 -.00025833  00000+0 -21237-3 0  9996
2 53074  97.6577  21.7618 0001501  88.8785 332.7553 15.70319851  2334
STARLINK-4348           
1 53075U 22077AJ  22202.91667824  .00054186  00000+0  44604-3 0  9993
2 53075  97.6553  21.4887 0001195  96.3223 356.0477 15.70241059  1308
STARLINK-4347           
1 53076U 22077AK  22203.16667824 -.00010915  00000+0 -89076-4 0  9999
2 53076  97.6559  21.7624 0001861  81.3671 341.2177 15.70284127  2338
STARLINK-4315           
1 53077U 22077AL  22202.91667824  .00118842  00000+0  97091-3 0  9993
2 53077  97.6574  21.4907 0001426  90.7978   2.7243 15.70204707  1303
STARLINK-4322           
1 53078U 22077AM  22202.91667824  .00016969  00000+0  14104-3 0  9995
2 53078  97.6575  21.4895 0001545  84.0593   7.6814 15.70242057  1300
STARLINK-4327           
1 53079U 22077AN  22202.91667824  .00117278  00000+0  95868-3 0  9997
2 53079  97.6552  21.4898 0001524  87.8512   6.2723 15.70195509  1301
STARLINK-4330           
1 53080U 22077AP  22203.16667824 -.00013197  00000+0 -10801-3 0  9998
2 53080  97.6579  21.7645 0001412  71.0292 354.1617 15.70273318  2337
STARLINK-4326           
1 53081U 22077AQ  22203.16667824 -.00013975  00000+0 -11457-3 0  9991
2 53081  97.6563  21.7658 0001323  86.0275 341.5427 15.70248352  2332
STARLINK-4321           
1 53082U 22077AR  22202.91667824  .00023182  00000+0  19204-3 0  9991
2 53082  97.6574  21.4904 0001575  88.9878   5.6817 15.70255156  1302
STARLINK-4251           
1 53083U 22077AS  22202.91667824  .00102734  00000+0  84081-3 0  9998
2 53083  97.6575  21.5020 0001313  73.3595  41.3722 15.70212429  1306
STARLINK-4319           
1 53084U 22077AT  22203.16667824 -.00012011  00000+0 -97975-4 0  9994
2 53084  97.6568  21.7655 0001603  93.1048 334.9919 15.70325412  2330
STARLINK-4324           
1 53085U 22077AU  22202.91667824 -.00032062  00000+0 -26503-3 0  9993
2 53085  97.6562  21.4925 0001254  81.2751  16.4164 15.70230324  1300
STARLINK-4318           
1 53086U 22077AV  22203.16667824 -.00020338  00000+0 -16694-3 0  9995
2 53086  97.6554  21.7655 0001440  87.6000 341.7801 15.70308638  2339
STARLINK-4329           
1 53087U 22077AW  22203.16667824 -.00123956  00000+0 -10355-2 0  9993
2 53087  97.6567  21.7687 0001733  85.1542 345.9833 15.70310992  2335
STARLINK-4333           
1 53088U 22077AX  22203.16667824 -.00011636  00000+0 -94948-4 0  9997
2 53088  97.6565  21.7672 0001270  81.1457 349.3083 15.70307749  2336
FALCON 9 DEB            
1 53089U 22077AY  22203.08095769  .00181173  13991-4  64602-3 0  9995
2 53089  97.6737  21.8806 0008773 217.7487 142.3170 15.88840482  1751
FALCON 9 DEB            
1 53090U 22077AZ  22203.07801433  .00185949  14694-4  64642-3 0  9999
2 53090  97.6722  21.8830 0007044 202.9476 157.1482 15.89371834  1759
FALCON 9 DEB            
1 53091U 22077BA  22203.07026767  .00208907  18216-4  67700-3 0  9991
2 53091  97.6692  21.8876 0011822 201.1380 158.9406 15.90676019  1750
FALCON 9 DEB            
1 53092U 22077BB  22203.06810425  .00203099  17384-4  64934-3 0  9991
2 53092  97.6690  21.8891 0011752 186.4135 173.6989 15.90944823  1752
TIANLIAN 2-03           
1 53100U 22078A   22194.13372968 -.00182734 -28037-6 -12902-1 0  9994
2 53100  27.1659 175.2503 7307003 174.6584 353.4153  2.27743687    10
CZ-3B R/B               
1 53101U 22078B   22202.77329144  .00043811 -30551-6  10928-2 0  9994
2 53101  27.1276 172.2594 7242188 179.4288 182.6180  2.37526080   221
LARES-2                 
1 53105U 22080A   22200.94588217 -.00000020  00000+0  00000+0 0  9997
2 53105  70.1483  75.1664 0005826 285.6930  74.3259  6.38965264   416
MTCUBE 2 (ROBUSTA 1F)   
1 53106U 22080B   22200.91061454 -.00000003  00000+0  00000+0 0  9995
2 53106  70.1487  75.1736 0007916 271.0195  89.0023  6.42551663   405
ASTROBIOCUBESAT         
1 53107U 22080C   22200.91487036 -.00000003  00000+0  00000+0 0  9994
2 53107  70.1605  75.1743 0011727 251.6089 108.1541  6.42111202   316
TRISAT-R                
1 53108U 22080D   22200.29161985 -.00000003  00000+0  00000+0 0  9998
2 53108  70.0017  75.4272 0015432 250.6917 109.4018  6.42150429   271
GREENCUBE               
1 53109U 22080E   22203.08921435 -.00000003  00000+0  00000+0 0  9993
2 53109  70.1365  74.2220 0009055 241.9621 118.0115  6.42583617   439
2022-080F               
1 53110U 22080F   22202.31198707 -.00000003  00000+0  00000+0 0  9998
2 53110  70.1580  74.6827 0034826 140.7736 219.5527  6.42512217   380
CELESTA                 
1 53111U 22080G   22201.22212397 -.00000003  00000+0  00000+0 0  9990
2 53111  70.1472  75.0842 0008017 230.7865 129.1755  6.42529879   302
2022-080H               
1 53112U 22080H   22197.22866146 -.00000003  00000+0  00000+0 0  9992
2 53112  70.1463  76.4508 0010840 259.7188 224.1212  6.42613720    58
DRAGON CRS-25           
1 53113U 22081A   22202.50409816  .00008230  00000+0  15168-3 0  9993
2 53113  51.6423 166.6142 0005036  35.1595  64.1866 15.50062623350508
SUPERVIEW NEO-2 O1      
1 53128U 22082A   22202.60063250  .00005290  00000+0  21736-3 0  9990
2 53128  97.3852 210.5163 0011439 245.2915 233.9354 15.24559246   865
CZ-2C DEB               
1 53129U 22082B   22202.77400631  .00026128  00000+0  10407-2 0  9992
2 53129  97.3850 210.6903 0011395 251.6869 108.3178 15.25152479   897
SUPERVIEW NEO-2 02      
1 53130U 22082C   22203.10880950  .00005375  00000+0  21552-3 0  9993
2 53130  97.3847 211.0241 0011919 261.1810 143.0297 15.25366301   944
CZ-2C R/B               
1 53131U 22082D   22202.60311385  .00011846  00000+0  32902-3 0  9990
2 53131  97.3585 210.5419 0048813 353.8890   6.1750 15.35817159   873
STARLINK A              
1 53132U 22083A   22202.75001157 -.01301151  47892-3 -42664-2 0  9994
2 53132  53.2174  26.5964 0035621  52.3918  44.0665 15.88814193  1302
STARLINK B              
1 53133U 22083B   22203.16667824 -.01374875  52383-3 -48361-2 0  9994
2 53133  53.2175  24.4917 0032231  52.3070 266.4824 15.87645313  1360
STARLINK C              
1 53134U 22083C   22203.16667824 -.01374896  52410-3 -48246-2 0  9991
2 53134  53.2175  24.4895 0032134  52.3759 267.1596 15.87698138  1369
